EUTELSAT 8 WEST B       
1 40875U 15039B   25249.87606566 -.00000068  00000+0  00000+0 0  9991
2 40875   0.0673 349.7442 0003685 177.6750 126.1660  1.00271843 36816
EUTELSAT 9B             
1 41310U 16005A   25249.87935900  .00000059  00000+0  00000+0 0  9996
2 41310   0.0334  66.8332 0002028 130.7391 114.2032  1.00270661 35278
EUTELSAT 65 WEST A      
1 41382U 16014A   25249.86471228 -.00000279  00000+0  00000+0 0  9997
2 41382   0.0623  25.7575 0002296 141.9470  64.5976  1.00269681 34699
EUTELSAT 117 WEST B     
1 41589U 16038B   25249.42617575 -.00000015  00000+0  00000+0 0  9999
2 41589   0.0369   5.4044 0000321 236.1704 140.6299  1.00273178 33818
EUTELSAT 172B           
1 42741U 17029B   25249.84035884 -.00000009  00000+0  00000+0 0  9997
2 42741   0.0168 164.6830 0000167 296.1716 359.8505  1.00271170 30882
EUTELSAT 7C             
1 44334U 19034B   25249.86017010  .00000045  00000+0  00000+0 0  9997
2 44334   0.0730 187.1201 0003258 323.9878 151.7356  1.00270659  3997
EUTELSAT 5 WEST B       
1 44624U 19067A   25249.86572502 -.00000045  00000+0  00000+0 0  9998
2 44624   0.0963 310.6642 0003198 218.4668 123.7287  1.00272567 21595
EUTELSAT KONNECT        
1 45027U 20005B   25249.86017010  .00000046  00000+0  00000+0 0  9998
2 45027   0.0627 100.9283 0001589  68.7258 133.3965  1.00268849 21480
